start=new Date('2022-10-25T00:00:00.000Z').valueOf();
sats=[{"COUNTRY_CODE":"US","MEAN_MOTION_DOT":"-0.00001612","RCS_SIZE":"LARGE","OBJECT_NAME":"STARLINK-3098","NORAD_CAT_ID":"49442","MEAN_MOTION_DDOT":"0.0000000000000","ARG_OF_PERICENTER":"25.0368","OBJECT_TYPE":"PAYLOAD","PERIOD":"95.439","FILE":"3631222","EPOCH":"2022-10-24T13:15:57.967200","ELEMENT_SET_NO":"999","RA_OF_ASC_NODE":"340.4072","TLE_LINE2":"2 49442  53.2178 340.4072 0002908  25.0368 335.0764 15.08821854 53989","SITE":"AFETR","MEAN_MOTION":"15.08821854","EPHEMERIS_TYPE":"0","APOAPSIS":"541.813","REV_AT_EPOCH":"5398","OBJECT_ID":"2021-104AL","TLE_LINE1":"1 49442U 21104AL  22297.55275425 -.00001612  00000-0 -83215-4 0  9993","ECCENTRICITY":"0.00029080","INCLINATION":"53.2178","LAUNCH_DATE":"2021-11-13","DECAY_DATE":null,"GP_ID":"216011527","REF_FRAME":"TEME","SEMIMAJOR_AXIS":"6917.936","TIME_SYSTEM":"UTC","MEAN_ANOMALY":"335.0764","MEAN_ELEMENT_THEORY":"SGP4","CLASSIFICATION_TYPE":"U","BSTAR":"-0.00008321500000","CENTER_NAME":"EARTH","PERIAPSIS":"537.789"},{"PERIAPSIS":"538.115","CENTER_NAME":"EARTH","BSTAR":"0.00002250500000","CLASSIFICATION_TYPE":"U","MEAN_ELEMENT_THEORY":"SGP4","MEAN_ANOMALY":"340.0723","TIME_SYSTEM":"UTC","REF_FRAME":"TEME","SEMIMAJOR_AXIS":"6917.884","GP_ID":"216039336","DECAY_DATE":null,"LAUNCH_DATE":"2021-11-13","INCLINATION":"53.2175","ECCENTRICITY":"0.00023620","TLE_LINE1":"1 49443U 21104AM  22297.46809570  .00000070  00000-0  22505-4 0  9998","REV_AT_EPOCH":"5289","OBJECT_ID":"2021-104AM","APOAPSIS":"541.383","EPHEMERIS_TYPE":"0","MEAN_MOTION":"15.08838977","SITE":"AFETR","TLE_LINE2":"2 49443  53.2175 340.7834 0002362  20.0361 340.0723 15.08838977 52892","RA_OF_ASC_NODE":"340.7834","ELEMENT_SET_NO":"999","EPOCH":"2022-10-24T11:14:03.468480","FILE":"3631438","PERIOD":"95.438","OBJECT_TYPE":"PAYLOAD","ARG_OF_PERICENTER":"20.0361","MEAN_MOTION_DDOT":"0.0000000000000","NORAD_CAT_ID":"49443","OBJECT_NAME":"STARLINK-3136","RCS_SIZE":"LARGE","MEAN_MOTION_DOT":"0.00000070","COUNTRY_CODE":"US"},{"RA_OF_ASC_NODE":"341.3148","ELEMENT_SET_NO":"999","FILE":"3631438","PERIOD":"95.438","EPOCH":"2022-10-24T08:24:29.109888","TLE_LINE2":"2 49444  53.2175 341.3148 0002612  25.9819 334.1304 15.08837138 52873","SITE":"AFETR","MEAN_MOTION_DOT":"-0.00000225","OBJECT_NAME":"STARLINK-3126","NORAD_CAT_ID":"49444","RCS_SIZE":"LARGE","COUNTRY_CODE":"US","OBJECT_TYPE":"PAYLOAD","MEAN_MOTION_DDOT":"0.0000000000000","ARG_OF_PERICENTER":"25.9819","TIME_SYSTEM":"UTC","MEAN_ANOMALY":"334.1304","SEMIMAJOR_AXIS":"6917.889","REF_FRAME":"TEME","CLASSIFICATION_TYPE":"U","MEAN_ELEMENT_THEORY":"SGP4","GP_ID":"216040586","PERIAPSIS":"537.947","CENTER_NAME":"EARTH","BSTAR":"0.00000399380000","OBJECT_ID":"2021-104AN","REV_AT_EPOCH":"5287","APOAPSIS":"541.561","EPHEMERIS_TYPE":"0","MEAN_MOTION":"15.08837138","DECAY_DATE":null,"LAUNCH_DATE":"2021-11-13","ECCENTRICITY":"0.00026120","TLE_LINE1":"1 49444U 21104AN  22297.35033692 -.00000225  00000-0  39938-5 0  9993","INCLINATION":"53.2175"},{"TLE_LINE2":"2 49445  53.2168 350.0654 0002304  27.1652 332.9460 15.08814280 52773","SITE":"AFETR","RA_OF_ASC_NODE":"350.0654","ELEMENT_SET_NO":"999","FILE":"3631857","PERIOD":"95.439","EPOCH":"2022-10-24T15:05:54.759264","OBJECT_TYPE":"PAYLOAD","MEAN_MOTION_DDOT":"0.0000000000000","ARG_OF_PERICENTER":"27.1652","MEAN_MOTION_DOT":"-0.00006506","OBJECT_NAME":"STARLINK-3122","NORAD_CAT_ID":"49445","RCS_SIZE":"LARGE","COUNTRY_CODE":"US","PERIAPSIS":"538.230","CENTER_NAME":"EARTH","BSTAR":"-0.00039131000000","MEAN_ANOMALY":"332.9460","TIME_SYSTEM":"UTC","REF_FRAME":"TEME","SEMIMAJOR_AXIS":"6917.959","CLASSIFICATION_TYPE":"U","MEAN_ELEMENT_THEORY":"SGP4","GP_ID":"216071876","LAUNCH_DATE":"2021-11-13","DECAY_DATE":null,"ECCENTRICITY":"0.00023040","TLE_LINE1":"1 49445U 21104AP  22297.62910601 -.00006506  00000-0 -39131-3 0  9990","INCLINATION":"53.2168","OBJECT_ID":"2021-104AP","REV_AT_EPOCH":"5277","APOAPSIS":"541.418","EPHEMERIS_TYPE":"0","MEAN_MOTION":"15.08814280"},{"MEAN_MOTION":"15.08836018","EPHEMERIS_TYPE":"0","APOAPSIS":"540.932","REV_AT_EPOCH":"5287","OBJECT_ID":"2021-104AQ","TLE_LINE1":"1 49446U 21104AQ  22297.34665636  .00000031  00000-0  20076-4 0  9999","ECCENTRICITY":"0.00016980","INCLINATION":"53.2175","DECAY_DATE":null,"LAUNCH_DATE":"2021-11-13","GP_ID":"216039087","SEMIMAJOR_AXIS":"6917.893","REF_FRAME":"TEME","TIME_SYSTEM":"UTC","MEAN_ANOMALY":"310.4877","MEAN_ELEMENT_THEORY":"SGP4","CLASSIFICATION_TYPE":"U","BSTAR":"0.00002007600000","CENTER_NAME":"EARTH","PERIAPSIS":"538.583","COUNTRY_CODE":"US","MEAN_MOTION_DOT":"0.00000031","RCS_SIZE":"LARGE","NORAD_CAT_ID":"49446","OBJECT_NAME":"STARLINK-3099","MEAN_MOTION_DDOT":"0.0000000000000","ARG_OF_PERICENTER":"49.6263","OBJECT_TYPE":"PAYLOAD","PERIOD":"95.438","FILE":"3631438","EPOCH":"2022-10-24T08:19:11.109504","ELEMENT_SET_NO":"999","RA_OF_ASC_NODE":"341.3302","TLE_LINE2":"2 49446  53.2175 341.3302 0001698  49.6263 310.4877 15.08836018 52874","SITE":"AFETR"},{"NORAD_CAT_ID":"49447","OBJECT_NAME":"STARLINK-3115","RCS_SIZE":"LARGE","MEAN_MOTION_DOT":"-0.00004230","COUNTRY_CODE":"US","OBJECT_TYPE":"PAYLOAD","ARG_OF_PERICENTER":"31.3700","MEAN_MOTION_DDOT":"0.0000000000000","RA_OF_ASC_NODE":"348.9038","ELEMENT_SET_NO":"999","EPOCH":"2022-10-24T21:16:52.646880","FILE":"3631813","PERIOD":"95.439","SITE":"AFETR","TLE_LINE2":"2 49447  53.2163 348.9038 0002414  31.3700 328.7436 15.08815718 53881","REV_AT_EPOCH":"5388","OBJECT_ID":"2021-104AR","APOAPSIS":"541.490","EPHEMERIS_TYPE":"0","MEAN_MOTION":"15.08815718","LAUNCH_DATE":"2021-11-13","DECAY_DATE":null,"INCLINATION":"53.2163","ECCENTRICITY":"0.00024140","TLE_LINE1":"1 49447U 21104AR  22297.88672045 -.00004230  00000-0 -24795-3 0  9999","CLASSIFICATION_TYPE":"U","MEAN_ELEMENT_THEORY":"SGP4","TIME_SYSTEM":"UTC","MEAN_ANOMALY":"328.7436","REF_FRAME":"TEME","SEMIMAJOR_AXIS":"6917.955","GP_ID":"216048606","PERIAPSIS":"538.150","CENTER_NAME":"EARTH","BSTAR":"-0.00024795000000"},{"MEAN_MOTION_DOT":"-0.00003209","RCS_SIZE":"LARGE","OBJECT_NAME":"STARLINK-3097","NORAD_CAT_ID":"49448","COUNTRY_CODE":"US","OBJECT_TYPE":"PAYLOAD","MEAN_MOTION_DDOT":"0.0000000000000","ARG_OF_PERICENTER":"22.4189","ELEMENT_SET_NO":"999","RA_OF_ASC_NODE":"350.3398","PERIOD":"95.439","FILE":"3631222","EPOCH":"2022-10-24T13:35:50.213760","TLE_LINE2":"2 49448  53.2182 350.3398 0002823  22.4189 337.6926 15.08820303 53839","SITE":"AFETR","APOAPSIS":"541.759","REV_AT_EPOCH":"5383","OBJECT_ID":"2021-104AS","MEAN_MOTION":"15.08820303","EPHEMERIS_TYPE":"0","LAUNCH_DATE":"2021-11-13","DECAY_DATE":null,"TLE_LINE1":"1 49448U 21104AS  22297.56655340 -.00003209  00000-0 -18367-3 0  9997","ECCENTRICITY":"0.00028230","INCLINATION":"53.2182","REF_FRAME":"TEME","SEMIMAJOR_AXIS":"6917.941","MEAN_ANOMALY":"337.6926","TIME_SYSTEM":"UTC","MEAN_ELEMENT_THEORY":"SGP4","CLASSIFICATION_TYPE":"U","GP_ID":"216012031","PERIAPSIS":"537.853","BSTAR":"-0.00018367000000","CENTER_NAME":"EARTH"},{"ELEMENT_SET_NO":"999","RA_OF_ASC_NODE":"348.9236","PERIOD":"95.439","FILE":"3631813","EPOCH":"2022-10-24T21:11:34.862496","TLE_LINE2":"2 49449  53.2173 348.9236 0002471  31.1317 328.9821 15.08812981 53899","SITE":"AFETR","MEAN_MOTION_DOT":"-0.00003482","RCS_SIZE":"LARGE","OBJECT_NAME":"STARLINK-3137","NORAD_CAT_ID":"49449","COUNTRY_CODE":"US","OBJECT_TYPE":"PAYLOAD","MEAN_MOTION_DDOT":"0.0000000000000","ARG_OF_PERICENTER":"31.1317","REF_FRAME":"TEME","SEMIMAJOR_AXIS":"6917.963","MEAN_ANOMALY":"328.9821","TIME_SYSTEM":"UTC","MEAN_ELEMENT_THEORY":"SGP4","CLASSIFICATION_TYPE":"U","GP_ID":"216048108","PERIAPSIS":"538.119","BSTAR":"-0.00020092000000","CENTER_NAME":"EARTH","APOAPSIS":"541.537","REV_AT_EPOCH":"5389","OBJECT_ID":"2021-104AT","MEAN_MOTION":"15.08812981","EPHEMERIS_TYPE":"0","DECAY_DATE":null,"LAUNCH_DATE":"2021-11-13","TLE_LINE1":"1 49449U 21104AT  22297.88304239 -.00003482  00000-0 -20092-3 0  9992","ECCENTRICITY":"0.00024710","INCLINATION":"53.2173"},{"PERIOD":"95.439","FILE":"3631857","EPOCH":"2022-10-24T15:00:36.575712","ELEMENT_SET_NO":"999","RA_OF_ASC_NODE":"350.0682","TLE_LINE2":"2 49450  53.2166 350.0682 0002717  27.8547 332.2590 15.08824682 53030","SITE":"AFETR","COUNTRY_CODE":"US","MEAN_MOTION_DOT":"-0.00004068","RCS_SIZE":"LARGE","NORAD_CAT_ID":"49450","OBJECT_NAME":"STARLINK-3127","MEAN_MOTION_DDOT":"0.0000000000000","ARG_OF_PERICENTER":"27.8547","OBJECT_TYPE":"PAYLOAD","GP_ID":"216072628","REF_FRAME":"TEME","SEMIMAJOR_AXIS":"6917.927","TIME_SYSTEM":"UTC","MEAN_ANOMALY":"332.2590","MEAN_ELEMENT_THEORY":"SGP4","CLASSIFICATION_TYPE":"U","BSTAR":"-0.00023771000000","CENTER_NAME":"EARTH","PERIAPSIS":"537.913","MEAN_MOTION":"15.08824682","EPHEMERIS_TYPE":"0","APOAPSIS":"541.672","REV_AT_EPOCH":"5303","OBJECT_ID":"2021-104AU","TLE_LINE1":"1 49450U 21104AU  22297.62542333 -.00004068  00000-0 -23771-3 0  9993","ECCENTRICITY":"0.00027170","INCLINATION":"53.2166","DECAY_DATE":null,"LAUNCH_DATE":"2021-11-13"},{"ELEMENT_SET_NO":"999","RA_OF_ASC_NODE":"348.9440","PERIOD":"95.438","FILE":"3631813","EPOCH":"2022-10-24T21:06:15.802848","TLE_LINE2":"2 49451  53.2197 348.9440 0002830  24.7899 335.3228 15.08827000 53898","SITE":"AFETR","MEAN_MOTION_DOT":"-0.00001457","RCS_SIZE":"LARGE","NORAD_CAT_ID":"49451","OBJECT_NAME":"STARLINK-3125","COUNTRY_CODE":"US","OBJECT_TYPE":"PAYLOAD","MEAN_MOTION_DDOT":"0.0000000000000","ARG_OF_PERICENTER":"24.7899","SEMIMAJOR_AXIS":"6917.920","REF_FRAME":"TEME","TIME_SYSTEM":"UTC","MEAN_ANOMALY":"335.3228","MEAN_ELEMENT_THEORY":"SGP4","CLASSIFICATION_TYPE":"U","GP_ID":"216048101","PERIAPSIS":"537.827","BSTAR":"-0.00007343500000","CENTER_NAME":"EARTH","APOAPSIS":"541.743","REV_AT_EPOCH":"5389","OBJECT_ID":"2021-104AV","MEAN_MOTION":"15.08827000","EPHEMERIS_TYPE":"0","LAUNCH_DATE":"2021-11-13","DECAY_DATE":null,"TLE_LINE1":"1 49451U 21104AV  22297.87934957 -.00001457  00000-0 -73435-4 0  9990","ECCENTRICITY":"0.00028300","INCLINATION":"53.2197"}];
